YAOGAN-43 01G           
1 60464U 24148G   26068.44348481  .00010133  00000+0  35873-3 0  9993
2 60464  35.0006  62.0013 0007382 306.3543  53.6492 15.28332833 87004
STARLINK-34766          
1 66505U 25263W   26068.16835736  .00033600  00000+0  12253-2 0  9997
2 66505  43.0014 353.2552 0001371 268.5653  91.5042 15.27571596 18826
